STARLETTE               
1 07646U 75010A   22040.50906141 -.00000125  00000+0  12291-4 0  9997
2 07646  49.8228 255.1958 0205733 214.9716 143.7518 13.82310871374763
LAGEOS 1                
1 08820U 76039A   22039.28761104  .00000001  00000+0  00000+0 0  9997
2 08820 109.8601 354.7409 0045112 282.4087 268.5089  6.38664990811606
AJISAI (EGS)            
1 16908U 86061A   22039.93358039 -.00000102  00000+0 -28296-4 0  9996
2 16908  50.0120 354.2213 0011381  94.8482 357.0278 12.44495161282497
COSMOS 1989 (ETALON 1)  
1 19751U 89001C   22040.26080183 -.00000036  00000+0  00000+0 0  9995
2 19751  64.2731 126.7964 0023619 212.7921 152.2565  2.13156307257578
COSMOS 2024 (ETALON 2)  
1 20026U 89039C   22039.61704082 -.00000069  00000+0  00000+0 0  9997
2 20026  65.5510   4.7483 0018399 219.3601 260.0099  2.13204353254619
LAGEOS 2                
1 22195U 92070B   22039.59093831 -.00000009  00000+0  00000+0 0  9999
2 22195  52.6389 191.2429 0137533 212.4483 133.4916  6.47294184692502
STELLA                  
1 22824U 93061B   22039.91347135 -.00000037  00000+0  40342-5 0  9994
2 22824  98.9738  57.5121 0006717 158.9887 271.4181 14.27387631478041
LARES                   
1 38077U 12006A   22039.70929664 -.00000021  00000+0  10975-3 0  9991
2 38077  69.4921 127.2122 0006436 109.5833 250.5889 12.54931305457751
